[
    {
        "Altitude(m)": 622205.8805373234,
        "Argument of Periapsis(deg)": 0.0,
        "Eccentricity": 0.0,
        "Inclination(deg)": 60.0,
        "Latitude(deg)": -52.16247142362399,
        "Longitude(deg)": -152.29971536952627,
        "Mean Anomaly(deg)": 245.4545,
        "RAAN(deg)": 80.0,
        "Satellite Name": "Test1 367",
        "Satellite Number": 367,
        "Semi-Major Axis(m)": 6980739.136638005,
        "Time(s)": 0
    },
    {
        "Altitude(m)": 622344.7874570828,
        "Argument of Periapsis(deg)": 0.00010418945913296404,
        "Eccentricity": 0.0,
        "Inclination(deg)": 60.0,
        "Latitude(deg)": -52.520052180366314,
        "Longitude(deg)": -151.51850378257538,
        "Mean Anomaly(deg)": 246.07460614546184,
        "RAAN(deg)": 79.99957995086025,
        "Satellite Name": "Test1 367",
        "Satellite Number": 367,
        "Semi-Major Axis(m)": 6980739.136638005,
        "Time(s)": 10
    }
]